[{"OBJECT_NAME":"STARLINK-5455","OBJECT_ID":"2023-021AS","EPOCH":"2026-03-09T16:38:53.876832","MEAN_MOTION":14.98332438,"ECCENTRICITY":0.000339,"INCLINATION":70.0008,"RA_OF_ASC_NODE":164.5072,"ARG_OF_PERICENTER":273.9527,"MEAN_ANOMALY":86.1245,"EPHEMERIS_TYPE":0,"CLASSIFICATION_TYPE":"U","NORAD_CAT_ID":55668,"ELEMENT_SET_NO":999,"REV_AT_EPOCH":16927,"BSTAR":-4.2750884e-5,"MEAN_MOTION_DOT":-6.03e-6,"MEAN_MOTION_DDOT":0},{"OBJECT_NAME":"ICEYE-X48","OBJECT_ID":"2025-052AV","EPOCH":"2026-03-09T16:59:01.566528","MEAN_MOTION":14.97356709,"ECCENTRICITY":0.00026878,"INCLINATION":97.6979,"RA_OF_ASC_NODE":322.3976,"ARG_OF_PERICENTER":141.7433,"MEAN_ANOMALY":218.398,"EPHEMERIS_TYPE":0,"CLASSIFICATION_TYPE":"U","NORAD_CAT_ID":63253,"ELEMENT_SET_NO":999,"REV_AT_EPOCH":5378,"BSTAR":0.00039588576,"MEAN_MOTION_DOT":4.541e-5,"MEAN_MOTION_DDOT":0}]
